<!doctype html>

<html>

<head>

<title>TLE for NORAD Catalog Number 44252</title>

</head>

<body>

<pre>
STARLINK-71             
1 44252U 19029T   19302.09843468  .00001965  00000-0  15438-3 0  9990
2 44252  52.9997 182.0692 0001838  92.2757 267.8441 15.05478078 23899

</pre>
	
</body>

</html>
